LEMUR-2-JK0903EM1407    
1 58336U 23174CJ  26062.46089707  .00030482  00000+0  61877-3 0  9997
2 58336  97.3930 150.4138 0006217 136.0878 224.0866 15.46281295129361
LEMUR-2-MJR092620       
1 58340U 23174CN  26062.21323142  .00014711  00000+0  34748-3 0  9993
2 58340  97.4001 150.5521 0008036 134.8918 225.2983 15.41921502129309
LEMUR-2-NIMBUS2000      
1 58899U 24022A   26062.50509897  .00020078  00000+0  56449-3 0  9995
2 58899  97.4230 271.3622 0010398 133.4797 226.7313 15.36486627116026
LEMUR-2-VALHALLA        
1 58900U 24022B   26062.48329385  .00019670  00000+0  55718-3 0  9991
2 58900  97.4229 271.3762 0011011 129.3805 230.8416 15.36249276116026
LEMUR-2-OBA-NI-JESU     
1 58902U 24022D   26062.39987331  .00104161  00000+0  10969-2 0  9992
2 58902  97.4070 280.1413 0005161  89.1449 271.0401 15.63925836116618
LEMUR-2-CAEL            
1 58903U 24022E   26062.51059115  .00020943  00000+0  57205-3 0  9997
2 58903  97.4214 272.1675 0009405 113.5647 246.6587 15.37386205116083
LEMUR-2-JOHNNYTRUONG    
1 59146U 24043BA  26062.40162235  .00041047  00000+0  66798-3 0  9991
2 59146  97.5247 208.2638 0005317 206.3385 153.7598 15.52544079111589
LEMUR-2-TOMATOKECHUP    
1 60471U 24149D   26062.16768955  .00014594  00000+0  45209-3 0  9996
2 60471  97.3859 144.1124 0000898 205.9651 154.1547 15.33548678 85900
LEMUR-2-STELLA          
1 60533U 24149BT  26062.29596071  .00014803  00000+0  93280-3 0  9992
2 60533  97.6791 144.4742 0001569  96.0812 264.0595 15.09248705 84511
LEMUR-2-MARHISYAM       
1 60536U 24149BW  26062.17520857  .00014289  00000+0  91172-3 0  9997
2 60536  97.6930 144.6862 0003242 123.1448 237.0091 15.08795894 84483
LEMUR-2-AHMED-ASRAR     
1 60576U 24149DN  26062.17342138  .00014433  00000+0  88720-3 0  9991
2 60576  97.7046 146.3870 0002173  39.9601 320.1788 15.10163204 84553
LEMUR-2-LLOYD           
1 60577U 24149DP  26062.21886117  .00012396  00000+0  83132-3 0  9995
2 60577  97.6810 143.4505 0005171 140.7280 219.4323 15.06984158 84425
LEMUR-2-SQUIRRELCOMM    
1 60578U 24149DQ  26062.44771531  .00008979  00000+0  62382-3 0  9990
2 60578  97.6758 143.7814 0006267  60.1412 300.0437 15.05752953 84486
LEMUR-2-SIERRINI        
1 60579U 24149DR  26062.17595963  .00014838  00000+0  95500-3 0  9993
2 60579  97.6891 144.4811 0006120 169.9798 190.1553 15.08457684 84464
LEMUR-2-WILSON          
1 62694U 25009CP  26062.47204549  .00003100  00000+0  29135-3 0  9990
2 62694  97.7085 142.8106 0003900  49.5411 310.6149 14.94632394 61560
LEMUR-2-STAR-FOX        
1 62696U 25009CR  26062.47877326  .00012023  00000+0  95241-3 0  9996
2 62696  97.7064 144.9746 0002176 164.8022 195.3268 15.00721188 61697
