[{"OBJECT_NAME":"LEMUR-2-JK0903EM1407","OBJECT_ID":"2023-174CJ","EPOCH":"2026-03-03T11:03:41.506848","MEAN_MOTION":15.46281295,"ECCENTRICITY":0.0006217,"INCLINATION":97.393,"RA_OF_ASC_NODE":150.4138,"ARG_OF_PERICENTER":136.0878,"MEAN_ANOMALY":224.0866,"EPHEMERIS_TYPE":0,"CLASSIFICATION_TYPE":"U","NORAD_CAT_ID":58336,"ELEMENT_SET_NO":999,"REV_AT_EPOCH":12936,"BSTAR":0.00061877,"MEAN_MOTION_DOT":0.00030482,"MEAN_MOTION_DDOT":0},{"OBJECT_NAME":"LEMUR-2-MJR092620","OBJECT_ID":"2023-174CN","EPOCH":"2026-03-03T05:07:03.194688","MEAN_MOTION":15.41921502,"ECCENTRICITY":0.0008036,"INCLINATION":97.4001,"RA_OF_ASC_NODE":150.5521,"ARG_OF_PERICENTER":134.8918,"MEAN_ANOMALY":225.2983,"EPHEMERIS_TYPE":0,"CLASSIFICATION_TYPE":"U","NORAD_CAT_ID":58340,"ELEMENT_SET_NO":999,"REV_AT_EPOCH":12930,"BSTAR":0.00034748,"MEAN_MOTION_DOT":0.00014711,"MEAN_MOTION_DDOT":0},{"OBJECT_NAME":"LEMUR-2-NIMBUS2000","OBJECT_ID":"2024-022A","EPOCH":"2026-03-03T12:07:20.551008","MEAN_MOTION":15.36486627,"ECCENTRICITY":0.0010398,"INCLINATION":97.423,"RA_OF_ASC_NODE":271.3622,"ARG_OF_PERICENTER":133.4797,"MEAN_ANOMALY":226.7313,"EPHEMERIS_TYPE":0,"CLASSIFICATION_TYPE":"U","NORAD_CAT_ID":58899,"ELEMENT_SET_NO":999,"REV_AT_EPOCH":11602,"BSTAR":0.00056449,"MEAN_MOTION_DOT":0.00020078,"MEAN_MOTION_DDOT":0},{"OBJECT_NAME":"LEMUR-2-VALHALLA","OBJECT_ID":"2024-022B","EPOCH":"2026-03-03T11:35:56.588640","MEAN_MOTION":15.36249276,"ECCENTRICITY":0.0011011,"INCLINATION":97.4229,"RA_OF_ASC_NODE":271.3762,"ARG_OF_PERICENTER":129.3805,"MEAN_ANOMALY":230.8416,"EPHEMERIS_TYPE":0,"CLASSIFICATION_TYPE":"U","NORAD_CAT_ID":58900,"ELEMENT_SET_NO":999,"REV_AT_EPOCH":11602,"BSTAR":0.00055718,"MEAN_MOTION_DOT":0.0001967,"MEAN_MOTION_DDOT":0},{"OBJECT_NAME":"LEMUR-2-OBA-NI-JESU","OBJECT_ID":"2024-022D","EPOCH":"2026-03-03T09:35:49.053984","MEAN_MOTION":15.63925836,"ECCENTRICITY":0.0005161,"INCLINATION":97.407,"RA_OF_ASC_NODE":280.1413,"ARG_OF_PERICENTER":89.1449,"MEAN_ANOMALY":271.0401,"EPHEMERIS_TYPE":0,"CLASSIFICATION_TYPE":"U","NORAD_CAT_ID":58902,"ELEMENT_SET_NO":999,"REV_AT_EPOCH":11661,"BSTAR":0.0010969,"MEAN_MOTION_DOT":0.00104161,"MEAN_MOTION_DDOT":0},{"OBJECT_NAME":"LEMUR-2-CAEL","OBJECT_ID":"2024-022E","EPOCH":"2026-03-03T12:15:15.075360","MEAN_MOTION":15.37386205,"ECCENTRICITY":0.0009405,"INCLINATION":97.4214,"RA_OF_ASC_NODE":272.1675,"ARG_OF_PERICENTER":113.5647,"MEAN_ANOMALY":246.6587,"EPHEMERIS_TYPE":0,"CLASSIFICATION_TYPE":"U","NORAD_CAT_ID":58903,"ELEMENT_SET_NO":999,"REV_AT_EPOCH":11608,"BSTAR":0.00057205,"MEAN_MOTION_DOT":0.00020943,"MEAN_MOTION_DDOT":0},{"OBJECT_NAME":"LEMUR-2-JOHNNYTRUONG","OBJECT_ID":"2024-043BA","EPOCH":"2026-03-03T09:38:20.171040","MEAN_MOTION":15.52544079,"ECCENTRICITY":0.0005317,"INCLINATION":97.5247,"RA_OF_ASC_NODE":208.2638,"ARG_OF_PERICENTER":206.3385,"MEAN_ANOMALY":153.7598,"EPHEMERIS_TYPE":0,"CLASSIFICATION_TYPE":"U","NORAD_CAT_ID":59146,"ELEMENT_SET_NO":999,"REV_AT_EPOCH":11158,"BSTAR":0.00066798,"MEAN_MOTION_DOT":0.00041047,"MEAN_MOTION_DDOT":0},{"OBJECT_NAME":"LEMUR-2-TOMATOKECHUP","OBJECT_ID":"2024-149D","EPOCH":"2026-03-03T04:01:28.377120","MEAN_MOTION":15.33548678,"ECCENTRICITY":8.98e-5,"INCLINATION":97.3859,"RA_OF_ASC_NODE":144.1124,"ARG_OF_PERICENTER":205.9651,"MEAN_ANOMALY":154.1547,"EPHEMERIS_TYPE":0,"CLASSIFICATION_TYPE":"U","NORAD_CAT_ID":60471,"ELEMENT_SET_NO":999,"REV_AT_EPOCH":8590,"BSTAR":0.00045209,"MEAN_MOTION_DOT":0.00014594,"MEAN_MOTION_DDOT":0},{"OBJECT_NAME":"LEMUR-2-STELLA","OBJECT_ID":"2024-149BT","EPOCH":"2026-03-03T07:06:11.005344","MEAN_MOTION":15.09248705,"ECCENTRICITY":0.0001569,"INCLINATION":97.6791,"RA_OF_ASC_NODE":144.4742,"ARG_OF_PERICENTER":96.0812,"MEAN_ANOMALY":264.0595,"EPHEMERIS_TYPE":0,"CLASSIFICATION_TYPE":"U","NORAD_CAT_ID":60533,"ELEMENT_SET_NO":999,"REV_AT_EPOCH":8451,"BSTAR":0.0009328,"MEAN_MOTION_DOT":0.00014803,"MEAN_MOTION_DDOT":0},{"OBJECT_NAME":"LEMUR-2-MARHISYAM","OBJECT_ID":"2024-149BW","EPOCH":"2026-03-03T04:12:18.020448","MEAN_MOTION":15.08795894,"ECCENTRICITY":0.0003242,"INCLINATION":97.693,"RA_OF_ASC_NODE":144.6862,"ARG_OF_PERICENTER":123.1448,"MEAN_ANOMALY":237.0091,"EPHEMERIS_TYPE":0,"CLASSIFICATION_TYPE":"U","NORAD_CAT_ID":60536,"ELEMENT_SET_NO":999,"REV_AT_EPOCH":8448,"BSTAR":0.00091172,"MEAN_MOTION_DOT":0.00014289,"MEAN_MOTION_DDOT":0},{"OBJECT_NAME":"LEMUR-2-AHMED-ASRAR","OBJECT_ID":"2024-149DN","EPOCH":"2026-03-03T04:09:43.607232","MEAN_MOTION":15.10163204,"ECCENTRICITY":0.0002173,"INCLINATION":97.7046,"RA_OF_ASC_NODE":146.387,"ARG_OF_PERICENTER":39.9601,"MEAN_ANOMALY":320.1788,"EPHEMERIS_TYPE":0,"CLASSIFICATION_TYPE":"U","NORAD_CAT_ID":60576,"ELEMENT_SET_NO":999,"REV_AT_EPOCH":8455,"BSTAR":0.0008872,"MEAN_MOTION_DOT":0.00014433,"MEAN_MOTION_DDOT":0},{"OBJECT_NAME":"LEMUR-2-LLOYD","OBJECT_ID":"2024-149DP","EPOCH":"2026-03-03T05:15:09.605088","MEAN_MOTION":15.06984158,"ECCENTRICITY":0.0005171,"INCLINATION":97.681,"RA_OF_ASC_NODE":143.4505,"ARG_OF_PERICENTER":140.728,"MEAN_ANOMALY":219.4323,"EPHEMERIS_TYPE":0,"CLASSIFICATION_TYPE":"U","NORAD_CAT_ID":60577,"ELEMENT_SET_NO":999,"REV_AT_EPOCH":8442,"BSTAR":0.00083132,"MEAN_MOTION_DOT":0.00012396,"MEAN_MOTION_DDOT":0},{"OBJECT_NAME":"LEMUR-2-SQUIRRELCOMM","OBJECT_ID":"2024-149DQ","EPOCH":"2026-03-03T10:44:42.602784","MEAN_MOTION":15.05752953,"ECCENTRICITY":0.0006267,"INCLINATION":97.6758,"RA_OF_ASC_NODE":143.7814,"ARG_OF_PERICENTER":60.1412,"MEAN_ANOMALY":300.0437,"EPHEMERIS_TYPE":0,"CLASSIFICATION_TYPE":"U","NORAD_CAT_ID":60578,"ELEMENT_SET_NO":999,"REV_AT_EPOCH":8448,"BSTAR":0.00062382,"MEAN_MOTION_DOT":8.979e-5,"MEAN_MOTION_DDOT":0},{"OBJECT_NAME":"LEMUR-2-SIERRINI","OBJECT_ID":"2024-149DR","EPOCH":"2026-03-03T04:13:22.912032","MEAN_MOTION":15.08457684,"ECCENTRICITY":0.000612,"INCLINATION":97.6891,"RA_OF_ASC_NODE":144.4811,"ARG_OF_PERICENTER":169.9798,"MEAN_ANOMALY":190.1553,"EPHEMERIS_TYPE":0,"CLASSIFICATION_TYPE":"U","NORAD_CAT_ID":60579,"ELEMENT_SET_NO":999,"REV_AT_EPOCH":8446,"BSTAR":0.000955,"MEAN_MOTION_DOT":0.00014838,"MEAN_MOTION_DDOT":0},{"OBJECT_NAME":"LEMUR-2-WILSON","OBJECT_ID":"2025-009CP","EPOCH":"2026-03-03T11:19:44.730336","MEAN_MOTION":14.94632394,"ECCENTRICITY":0.00039,"INCLINATION":97.7085,"RA_OF_ASC_NODE":142.8106,"ARG_OF_PERICENTER":49.5411,"MEAN_ANOMALY":310.6149,"EPHEMERIS_TYPE":0,"CLASSIFICATION_TYPE":"U","NORAD_CAT_ID":62694,"ELEMENT_SET_NO":999,"REV_AT_EPOCH":6156,"BSTAR":0.00029135,"MEAN_MOTION_DOT":3.1e-5,"MEAN_MOTION_DDOT":0},{"OBJECT_NAME":"LEMUR-2-STAR-FOX","OBJECT_ID":"2025-009CR","EPOCH":"2026-03-03T11:29:26.009664","MEAN_MOTION":15.00721188,"ECCENTRICITY":0.0002176,"INCLINATION":97.7064,"RA_OF_ASC_NODE":144.9746,"ARG_OF_PERICENTER":164.8022,"MEAN_ANOMALY":195.3268,"EPHEMERIS_TYPE":0,"CLASSIFICATION_TYPE":"U","NORAD_CAT_ID":62696,"ELEMENT_SET_NO":999,"REV_AT_EPOCH":6169,"BSTAR":0.00095241,"MEAN_MOTION_DOT":0.00012023,"MEAN_MOTION_DDOT":0}]
